[{"ORDINAL":"1","COMMENT":"GENERATED VIA SPACETRACK.ORG API","ORIGINATOR":"JSPOC","NORAD_CAT_ID":"21575","OBJECT_NAME":"OSCAR 22 (UoSAT 5)","OBJECT_TYPE":"PAYLOAD","CLASSIFICATION_TYPE":"U","INTLDES":"91050B","EPOCH":"2018-10-11 16:14:11","EPOCH_MICROSECONDS":"31648","MEAN_MOTION":"14.40859223","ECCENTRICITY":"0.0006418","INCLINATION":"98.7197","RA_OF_ASC_NODE":"316.6371","ARG_OF_PERICENTER":"312.5788","MEAN_ANOMALY":"47.4858","EPHEMERIS_TYPE":"0","ELEMENT_SET_NO":"999","REV_AT_EPOCH":"43061","BSTAR":"1.8912e-05","MEAN_MOTION_DOT":"1.4e-07","MEAN_MOTION_DDOT":"0","FILE":"2343802","TLE_LINE0":"0 OSCAR 22 (UoSAT 5)","TLE_LINE1":"1 21575U 91050B   18284.67651657  .00000014  00000-0  18912-4 0  9991","TLE_LINE2":"2 21575  98.7197 316.6371 0006418 312.5788  47.4858 14.40859223430611","OBJECT_ID":"1991-050B","OBJECT_NUMBER":"21575","SEMIMAJOR_AXIS":"7133.797","PERIOD":"99.940","APOGEE":"760.241","PERIGEE":"751.084"},{"ORDINAL":"1","COMMENT":"GENERATED VIA SPACETRACK.ORG API","ORIGINATOR":"JSPOC","NORAD_CAT_ID":"22077","OBJECT_NAME":"OSCAR 23 (KITSAT 1)","OBJECT_TYPE":"PAYLOAD","CLASSIFICATION_TYPE":"U","INTLDES":"92052B","EPOCH":"2018-10-11 17:22:52","EPOCH_MICROSECONDS":"108608","MEAN_MOTION":"12.86524937","ECCENTRICITY":"0.000861","INCLINATION":"66.0873","RA_OF_ASC_NODE":"37.8957","ARG_OF_PERICENTER":"210.8242","MEAN_ANOMALY":"253.6603","EPHEMERIS_TYPE":"0","ELEMENT_SET_NO":"999","REV_AT_EPOCH":"22896","BSTAR":"1.295e-05","MEAN_MOTION_DOT":"-5.9e-07","MEAN_MOTION_DDOT":"0","FILE":"2344207","TLE_LINE0":"0 OSCAR 23 (KITSAT 1)","TLE_LINE1":"1 22077U 92052B   18284.72421422 -.00000059 +00000-0 +12950-4 0  9999","TLE_LINE2":"2 22077 066.0873 037.8957 0008610 210.8242 253.6603 12.86524937228962","OBJECT_ID":"1992-052B","OBJECT_NUMBER":"22077","SEMIMAJOR_AXIS":"7693.483","PERIOD":"111.929","APOGEE":"1321.972","PERIGEE":"1308.724"},{"ORDINAL":"1","COMMENT":"GENERATED VIA SPACETRACK.ORG API","ORIGINATOR":"JSPOC","NORAD_CAT_ID":"22654","OBJECT_NAME":"ARASENE","OBJECT_TYPE":"PAYLOAD","CLASSIFICATION_TYPE":"U","INTLDES":"93031B","EPOCH":"2018-10-11 17:18:45","EPOCH_MICROSECONDS":"302688","MEAN_MOTION":"1.4220524","ECCENTRICITY":"0.2939836","INCLINATION":"0.6383","RA_OF_ASC_NODE":"230.946","ARG_OF_PERICENTER":"42.5026","MEAN_ANOMALY":"58.6139","EPHEMERIS_TYPE":"0","ELEMENT_SET_NO":"999","REV_AT_EPOCH":"12750","BSTAR":"0","MEAN_MOTION_DOT":"-1.24e-06","MEAN_MOTION_DDOT":"0","FILE":"2343794","TLE_LINE0":"0 ARASENE","TLE_LINE1":"1 22654U 93031B   18284.72135767 -.00000124  00000-0  00000+0 0  9993","TLE_LINE2":"2 22654   0.6383 230.9460 2939836  42.5026  58.6139  1.42205240127501","OBJECT_ID":"1993-031B","OBJECT_NUMBER":"22654","SEMIMAJOR_AXIS":"33403.459","PERIOD":"1012.620","APOGEE":"36845.393","PERIGEE":"17205.254"},{"ORDINAL":"1","COMMENT":"GENERATED VIA SPACETRACK.ORG API","ORIGINATOR":"JSPOC","NORAD_CAT_ID":"22825","OBJECT_NAME":"EYESAT A","OBJECT_TYPE":"PAYLOAD","CLASSIFICATION_TYPE":"U","INTLDES":"93061C","EPOCH":"2018-10-11 03:46:44","EPOCH_MICROSECONDS":"557824","MEAN_MOTION":"14.30041323","ECCENTRICITY":"0.0008707","INCLINATION":"98.8764","RA_OF_ASC_NODE":"262.4493","ARG_OF_PERICENTER":"15.978","MEAN_ANOMALY":"344.1674","EPHEMERIS_TYPE":"0","ELEMENT_SET_NO":"999","REV_AT_EPOCH":"30587","BSTAR":"1.3029e-05","MEAN_MOTION_DOT":"-1.3e-07","MEAN_MOTION_DDOT":"0","FILE":"2343880","TLE_LINE0":"0 EYESAT A","TLE_LINE1":"1 22825U 93061C   18284.15746016 -.00000013 +00000-0 +13029-4 0  9995","TLE_LINE2":"2 22825 098.8764 262.4493 0008707 015.9780 344.1674 14.30041323305878","OBJECT_ID":"1993-061C","OBJECT_NUMBER":"22825","SEMIMAJOR_AXIS":"7169.729","PERIOD":"100.696","APOGEE":"797.837","PERIGEE":"785.352"},{"ORDINAL":"1","COMMENT":"GENERATED VIA SPACETRACK.ORG API","ORIGINATOR":"JSPOC","NORAD_CAT_ID":"22826","OBJECT_NAME":"ITAMSAT","OBJECT_TYPE":"PAYLOAD","CLASSIFICATION_TYPE":"U","INTLDES":"93061D","EPOCH":"2018-10-12 11:26:08","EPOCH_MICROSECONDS":"262528","MEAN_MOTION":"14.30373553","ECCENTRICITY":"0.0008953","INCLINATION":"98.8707","RA_OF_ASC_NODE":"263.8172","ARG_OF_PERICENTER":"1.4216","MEAN_ANOMALY":"358.699","EPHEMERIS_TYPE":"0","ELEMENT_SET_NO":"999","REV_AT_EPOCH":"30652","BSTAR":"1.942e-05","MEAN_MOTION_DOT":"4e-08","MEAN_MOTION_DDOT":"0","FILE":"2344100","TLE_LINE0":"0 ITAMSAT","TLE_LINE1":"1 22826U 93061D   18285.47648452  .00000004  00000-0  19420-4 0  9997","TLE_LINE2":"2 22826  98.8707 263.8172 0008953   1.4216 358.6990 14.30373553306529","OBJECT_ID":"1993-061D","OBJECT_NUMBER":"22826","SEMIMAJOR_AXIS":"7168.619","PERIOD":"100.673","APOGEE":"796.902","PERIGEE":"784.066"},{"ORDINAL":"1","COMMENT":"GENERATED VIA SPACETRACK.ORG API","ORIGINATOR":"JSPOC","NORAD_CAT_ID":"22828","OBJECT_NAME":"KITSAT B","OBJECT_TYPE":"PAYLOAD","CLASSIFICATION_TYPE":"U","INTLDES":"93061F","EPOCH":"2018-10-12 12:14:04","EPOCH_MICROSECONDS":"222176","MEAN_MOTION":"14.30688423","ECCENTRICITY":"0.0009306","INCLINATION":"98.8623","RA_OF_ASC_NODE":"262.3677","ARG_OF_PERICENTER":"327.1402","MEAN_ANOMALY":"32.92","EPHEMERIS_TYPE":"0","ELEMENT_SET_NO":"999","REV_AT_EPOCH":"27490","BSTAR":"2.6499e-05","MEAN_MOTION_DOT":"2.3e-07","MEAN_MOTION_DDOT":"0","FILE":"2344119","TLE_LINE0":"0 KITSAT B","TLE_LINE1":"1 22828U 93061F   18285.50977109  .00000023  00000-0  26499-4 0  9992","TLE_LINE2":"2 22828  98.8623 262.3677 0009306 327.1402  32.9200 14.30688423274907","OBJECT_ID":"1993-061F","OBJECT_NUMBER":"22828","SEMIMAJOR_AXIS":"7167.567","PERIOD":"100.650","APOGEE":"796.102","PERIGEE":"782.762"},{"ORDINAL":"1","COMMENT":"GENERATED VIA SPACETRACK.ORG API","ORIGINATOR":"JSPOC","NORAD_CAT_ID":"22829","OBJECT_NAME":"POSAT 1","OBJECT_TYPE":"PAYLOAD","CLASSIFICATION_TYPE":"U","INTLDES":"93061G","EPOCH":"2018-10-12 12:54:25","EPOCH_MICROSECONDS":"335072","MEAN_MOTION":"14.31013128","ECCENTRICITY":"0.0008981","INCLINATION":"98.8632","RA_OF_ASC_NODE":"265.568","ARG_OF_PERICENTER":"316.5313","MEAN_ANOMALY":"155.0852","EPHEMERIS_TYPE":"0","ELEMENT_SET_NO":"999","REV_AT_EPOCH":"30705","BSTAR":"1.1209e-05","MEAN_MOTION_DOT":"-1.7e-07","MEAN_MOTION_DDOT":"0","FILE":"2344108","TLE_LINE0":"0 POSAT 1","TLE_LINE1":"1 22829U 93061G   18285.53779323 -.00000017  00000-0  11209-4 0  9991","TLE_LINE2":"2 22829  98.8632 265.5680 0008981 316.5313 155.0852 14.31013128307056","OBJECT_ID":"1993-061G","OBJECT_NUMBER":"22829","SEMIMAJOR_AXIS":"7166.483","PERIOD":"100.628","APOGEE":"794.784","PERIGEE":"781.912"},{"ORDINAL":"1","COMMENT":"GENERATED VIA SPACETRACK.ORG API","ORIGINATOR":"JSPOC","NORAD_CAT_ID":"23439","OBJECT_NAME":"RADIO ROSTO","OBJECT_TYPE":"PAYLOAD","CLASSIFICATION_TYPE":"U","INTLDES":"94085A","EPOCH":"2018-10-11 20:54:06","EPOCH_MICROSECONDS":"281856","MEAN_MOTION":"11.27568539","ECCENTRICITY":"0.0153402","INCLINATION":"64.8156","RA_OF_ASC_NODE":"160.1293","ARG_OF_PERICENTER":"160.7764","MEAN_ANOMALY":"275.2431","EPHEMERIS_TYPE":"0","ELEMENT_SET_NO":"999","REV_AT_EPOCH":"97972","BSTAR":"0.00086191","MEAN_MOTION_DOT":"-1.2e-07","MEAN_MOTION_DDOT":"0","FILE":"2344207","TLE_LINE0":"0 RADIO ROSTO","TLE_LINE1":"1 23439U 94085A   18284.87090604 -.00000012 +00000-0 +86191-3 0  9996","TLE_LINE2":"2 23439 064.8156 160.1293 0153402 160.7764 275.2431 11.27568539979726","OBJECT_ID":"1994-085A","OBJECT_NUMBER":"23439","SEMIMAJOR_AXIS":"8400.527","PERIOD":"127.708","APOGEE":"2151.257","PERIGEE":"1893.526"},{"ORDINAL":"1","COMMENT":"GENERATED VIA SPACETRACK.ORG API","ORIGINATOR":"JSPOC","NORAD_CAT_ID":"24278","OBJECT_NAME":"JAS 2","OBJECT_TYPE":"PAYLOAD","CLASSIFICATION_TYPE":"U","INTLDES":"96046B","EPOCH":"2018-10-12 05:02:31","EPOCH_MICROSECONDS":"597152","MEAN_MOTION":"13.53086234","ECCENTRICITY":"0.0350575","INCLINATION":"98.5149","RA_OF_ASC_NODE":"107.8372","ARG_OF_PERICENTER":"167.1135","MEAN_ANOMALY":"193.9256","EPHEMERIS_TYPE":"0","ELEMENT_SET_NO":"999","REV_AT_EPOCH":"9406","BSTAR":"2.196e-05","MEAN_MOTION_DOT":"-1.2e-07","MEAN_MOTION_DDOT":"0","FILE":"2343979","TLE_LINE0":"0 JAS 2","TLE_LINE1":"1 24278U 96046B   18285.21008793 -.00000012  00000-0  21960-4 0  9998","TLE_LINE2":"2 24278  98.5149 107.8372 0350575 167.1135 193.9256 13.53086234 94067","OBJECT_ID":"1996-046B","OBJECT_NUMBER":"24278","SEMIMAJOR_AXIS":"7439.062","PERIOD":"106.423","APOGEE":"1321.722","PERIGEE":"800.132"},{"ORDINAL":"1","COMMENT":"GENERATED VIA SPACETRACK.ORG API","ORIGINATOR":"JSPOC","NORAD_CAT_ID":"25396","OBJECT_NAME":"TMSAT","OBJECT_TYPE":"PAYLOAD","CLASSIFICATION_TYPE":"U","INTLDES":"98043C","EPOCH":"2018-10-11 19:19:49","EPOCH_MICROSECONDS":"681632","MEAN_MOTION":"14.24493761","ECCENTRICITY":"0.0003074","INCLINATION":"98.6348","RA_OF_ASC_NODE":"224.3418","ARG_OF_PERICENTER":"26.7925","MEAN_ANOMALY":"333.3413","EPHEMERIS_TYPE":"0","ELEMENT_SET_NO":"999","REV_AT_EPOCH":"5274","BSTAR":"2.3246e-05","MEAN_MOTION_DOT":"1e-07","MEAN_MOTION_DDOT":"0","FILE":"2343796","TLE_LINE0":"0 TMSAT","TLE_LINE1":"1 25396U 98043C   18284.80543613  .00000010  00000-0  23246-4 0  9994","TLE_LINE2":"2 25396  98.6348 224.3418 0003074  26.7925 333.3413 14.24493761 52743","OBJECT_ID":"1998-043C","OBJECT_NUMBER":"25396","SEMIMAJOR_AXIS":"7188.332","PERIOD":"101.088","APOGEE":"812.406","PERIGEE":"807.987"},{"ORDINAL":"1","COMMENT":"GENERATED VIA SPACETRACK.ORG API","ORIGINATOR":"JSPOC","NORAD_CAT_ID":"25397","OBJECT_NAME":"TECHSAT 1B","OBJECT_TYPE":"PAYLOAD","CLASSIFICATION_TYPE":"U","INTLDES":"98043D","EPOCH":"2018-10-11 20:09:26","EPOCH_MICROSECONDS":"707680","MEAN_MOTION":"14.23652735","ECCENTRICITY":"0.0002231","INCLINATION":"98.6584","RA_OF_ASC_NODE":"223.391","ARG_OF_PERICENTER":"62.9961","MEAN_ANOMALY":"297.1445","EPHEMERIS_TYPE":"0","ELEMENT_SET_NO":"999","REV_AT_EPOCH":"5210","BSTAR":"1.7281e-05","MEAN_MOTION_DOT":"-4e-08","MEAN_MOTION_DDOT":"0","FILE":"2344207","TLE_LINE0":"0 TECHSAT 1B","TLE_LINE1":"1 25397U 98043D   18284.83989245 -.00000004 +00000-0 +17281-4 0  9999","TLE_LINE2":"2 25397 098.6584 223.3910 0002231 062.9961 297.1445 14.23652735052107","OBJECT_ID":"1998-043D","OBJECT_NUMBER":"25397","SEMIMAJOR_AXIS":"7191.162","PERIOD":"101.148","APOGEE":"814.632","PERIGEE":"811.423"}]